start=new Date('2022-02-14T00:00:00.000Z').valueOf();
sats=[{"RCS_SIZE":"LARGE","LAUNCH_DATE":"2020-08-07","CENTER_NAME":"EARTH","TLE_LINE1":"1 46055U 20055AE  22044.77177568  .00002741  00000-0  20285-3 0  9996","MEAN_ELEMENT_THEORY":"SGP4","PERIOD":"95.593","SITE":"AFETR","OBJECT_ID":"2020-055AE","FILE":"3299781","COUNTRY_CODE":"US","NORAD_CAT_ID":"46055","MEAN_MOTION":"15.06391759","INCLINATION":"53.0548","SEMIMAJOR_AXIS":"6925.374","ELEMENT_SET_NO":"999","RA_OF_ASC_NODE":"302.6865","DECAY_DATE":null,"BSTAR":"0.00020285000000","EPOCH":"2022-02-13T18:31:21.418752","ECCENTRICITY":"0.00015300","GP_ID":"195900056","TIME_SYSTEM":"UTC","CLASSIFICATION_TYPE":"U","REF_FRAME":"TEME","TLE_LINE2":"2 46055  53.0548 302.6865 0001530  64.0031 296.1116 15.06391759 84677","ARG_OF_PERICENTER":"64.0031","EPHEMERIS_TYPE":"0","PERIAPSIS":"546.179","REV_AT_EPOCH":"8467","APOAPSIS":"548.298","OBJECT_NAME":"STARLINK-1554","MEAN_MOTION_DDOT":"0.0000000000000","MEAN_ANOMALY":"296.1116","MEAN_MOTION_DOT":"0.00002741","OBJECT_TYPE":"PAYLOAD"},{"MEAN_ELEMENT_THEORY":"SGP4","TLE_LINE1":"1 46056U 20055AF  22044.19676033 -.00008965  00000-0 -58408-3 0  9998","LAUNCH_DATE":"2020-08-07","CENTER_NAME":"EARTH","RCS_SIZE":"LARGE","COUNTRY_CODE":"US","NORAD_CAT_ID":"46056","MEAN_MOTION":"15.06378418","FILE":"3299685","SITE":"AFETR","OBJECT_ID":"2020-055AF","PERIOD":"95.594","DECAY_DATE":null,"SEMIMAJOR_AXIS":"6925.415","ELEMENT_SET_NO":"999","RA_OF_ASC_NODE":"305.2541","INCLINATION":"53.0542","TIME_SYSTEM":"UTC","CLASSIFICATION_TYPE":"U","GP_ID":"195892597","ECCENTRICITY":"0.00012550","BSTAR":"-0.00058408000000","EPOCH":"2022-02-13T04:43:20.092512","ARG_OF_PERICENTER":"65.7513","EPHEMERIS_TYPE":"0","TLE_LINE2":"2 46056  53.0542 305.2541 0001255  65.7513 294.3607 15.06378418 85144","REF_FRAME":"TEME","PERIAPSIS":"546.411","REV_AT_EPOCH":"8514","OBJECT_NAME":"STARLINK-1561","APOAPSIS":"548.149","OBJECT_TYPE":"PAYLOAD","MEAN_MOTION_DDOT":"0.0000000000000","MEAN_MOTION_DOT":"-0.00008965","MEAN_ANOMALY":"294.3607"},{"OBJECT_NAME":"STARLINK-1564","APOAPSIS":"548.342","OBJECT_TYPE":"PAYLOAD","MEAN_MOTION_DDOT":"0.0000000000000","MEAN_MOTION_DOT":"-0.00002506","MEAN_ANOMALY":"288.1186","TLE_LINE2":"2 46058  53.0546 302.8140 0001619  71.9980 288.1186 15.06397485 84685","ARG_OF_PERICENTER":"71.9980","EPHEMERIS_TYPE":"0","REF_FRAME":"TEME","PERIAPSIS":"546.100","REV_AT_EPOCH":"8468","DECAY_DATE":null,"INCLINATION":"53.0546","RA_OF_ASC_NODE":"302.8140","SEMIMAJOR_AXIS":"6925.356","ELEMENT_SET_NO":"999","TIME_SYSTEM":"UTC","CLASSIFICATION_TYPE":"U","BSTAR":"-0.00014943000000","EPOCH":"2022-02-13T17:43:33.844224","GP_ID":"195899602","ECCENTRICITY":"0.00016190","CENTER_NAME":"EARTH","LAUNCH_DATE":"2020-08-07","MEAN_ELEMENT_THEORY":"SGP4","TLE_LINE1":"1 46058U 20055AH  22044.73858616 -.00002506  00000-0 -14943-3 0  9990","RCS_SIZE":"LARGE","FILE":"3299800","MEAN_MOTION":"15.06397485","COUNTRY_CODE":"US","NORAD_CAT_ID":"46058","PERIOD":"95.592","SITE":"AFETR","OBJECT_ID":"2020-055AH"},{"RCS_SIZE":"LARGE","CENTER_NAME":"EARTH","LAUNCH_DATE":"2020-08-07","TLE_LINE1":"1 46059U 20055AJ  22044.41423098 -.00007047  00000-0 -45494-3 0  9998","MEAN_ELEMENT_THEORY":"SGP4","PERIOD":"95.593","SITE":"AFETR","OBJECT_ID":"2020-055AJ","FILE":"3299685","MEAN_MOTION":"15.06378583","COUNTRY_CODE":"US","NORAD_CAT_ID":"46059","INCLINATION":"53.0536","RA_OF_ASC_NODE":"304.2698","SEMIMAJOR_AXIS":"6925.414","ELEMENT_SET_NO":"999","DECAY_DATE":null,"BSTAR":"-0.00045494000000","EPOCH":"2022-02-13T09:56:29.556672","ECCENTRICITY":"0.00015830","GP_ID":"195891609","TIME_SYSTEM":"UTC","CLASSIFICATION_TYPE":"U","REF_FRAME":"TEME","TLE_LINE2":"2 46059  53.0536 304.2698 0001583  74.2482 285.8682 15.06378583 85125","ARG_OF_PERICENTER":"74.2482","EPHEMERIS_TYPE":"0","REV_AT_EPOCH":"8512","PERIAPSIS":"546.183","APOAPSIS":"548.375","OBJECT_NAME":"STARLINK-1570","MEAN_MOTION_DDOT":"0.0000000000000","MEAN_MOTION_DOT":"-0.00007047","MEAN_ANOMALY":"285.8682","OBJECT_TYPE":"PAYLOAD"},{"REF_FRAME":"TEME","ARG_OF_PERICENTER":"70.5491","EPHEMERIS_TYPE":"0","TLE_LINE2":"2 46060  53.0548 304.2934 0001689  70.5491 289.5680 15.06409560 85139","REV_AT_EPOCH":"8513","PERIAPSIS":"546.015","APOAPSIS":"548.354","OBJECT_NAME":"STARLINK-1572","MEAN_MOTION_DDOT":"0.0000000000000","MEAN_MOTION_DOT":"-0.00000030","MEAN_ANOMALY":"289.5680","OBJECT_TYPE":"PAYLOAD","RCS_SIZE":"LARGE","TLE_LINE1":"1 46060U 20055AK  22044.41053060 -.00000030  00000-0  16860-4 0  9998","MEAN_ELEMENT_THEORY":"SGP4","CENTER_NAME":"EARTH","LAUNCH_DATE":"2020-08-07","SITE":"AFETR","OBJECT_ID":"2020-055AK","PERIOD":"95.592","NORAD_CAT_ID":"46060","COUNTRY_CODE":"US","MEAN_MOTION":"15.06409560","FILE":"3299685","SEMIMAJOR_AXIS":"6925.319","ELEMENT_SET_NO":"999","RA_OF_ASC_NODE":"304.2934","INCLINATION":"53.0548","DECAY_DATE":null,"GP_ID":"195892360","ECCENTRICITY":"0.00016890","BSTAR":"0.00001686000000","EPOCH":"2022-02-13T09:51:09.843840","TIME_SYSTEM":"UTC","CLASSIFICATION_TYPE":"U"},{"APOAPSIS":"548.381","OBJECT_NAME":"STARLINK-1573","MEAN_ANOMALY":"291.2033","MEAN_MOTION_DDOT":"0.0000000000000","MEAN_MOTION_DOT":"-0.00000198","OBJECT_TYPE":"PAYLOAD","REF_FRAME":"TEME","ARG_OF_PERICENTER":"68.9125","EPHEMERIS_TYPE":"0","TLE_LINE2":"2 46061  53.0563 302.8354 0001580  68.9125 291.2033 15.06376066 84687","PERIAPSIS":"546.193","REV_AT_EPOCH":"8468","SEMIMAJOR_AXIS":"6925.422","ELEMENT_SET_NO":"999","RA_OF_ASC_NODE":"302.8354","INCLINATION":"53.0563","DECAY_DATE":null,"ECCENTRICITY":"0.00015800","GP_ID":"195899634","BSTAR":"0.00000560880000","EPOCH":"2022-02-13T17:38:16.355328","TIME_SYSTEM":"UTC","CLASSIFICATION_TYPE":"U","RCS_SIZE":"LARGE","TLE_LINE1":"1 46061U 20055AL  22044.73491152 -.00000198  00000-0  56088-5 0  9994","MEAN_ELEMENT_THEORY":"SGP4","LAUNCH_DATE":"2020-08-07","CENTER_NAME":"EARTH","SITE":"AFETR","OBJECT_ID":"2020-055AL","PERIOD":"95.594","COUNTRY_CODE":"US","NORAD_CAT_ID":"46061","MEAN_MOTION":"15.06376066","FILE":"3299786"},{"REF_FRAME":"TEME","EPHEMERIS_TYPE":"0","ARG_OF_PERICENTER":"67.5627","TLE_LINE2":"2 46062  53.0534 304.1923 0001554  67.5627 292.5527 15.06380376 85138","PERIAPSIS":"546.197","REV_AT_EPOCH":"8513","APOAPSIS":"548.350","OBJECT_NAME":"STARLINK-1574","MEAN_MOTION_DDOT":"0.0000000000000","MEAN_MOTION_DOT":"-0.00003791","MEAN_ANOMALY":"292.5527","OBJECT_TYPE":"PAYLOAD","RCS_SIZE":"LARGE","MEAN_ELEMENT_THEORY":"SGP4","TLE_LINE1":"1 46062U 20055AM  22044.43635585 -.00003791  00000-0 -23589-3 0  9993","LAUNCH_DATE":"2020-08-07","CENTER_NAME":"EARTH","OBJECT_ID":"2020-055AM","SITE":"AFETR","PERIOD":"95.593","COUNTRY_CODE":"US","MEAN_MOTION":"15.06380376","NORAD_CAT_ID":"46062","FILE":"3299685","SEMIMAJOR_AXIS":"6925.409","ELEMENT_SET_NO":"999","RA_OF_ASC_NODE":"304.1923","INCLINATION":"53.0534","DECAY_DATE":null,"ECCENTRICITY":"0.00015540","GP_ID":"195892848","EPOCH":"2022-02-13T10:28:21.145440","BSTAR":"-0.00023589000000","CLASSIFICATION_TYPE":"U","TIME_SYSTEM":"UTC"},{"MEAN_MOTION_DDOT":"0.0000000000000","MEAN_ANOMALY":"282.9975","MEAN_MOTION_DOT":"-0.00009926","OBJECT_TYPE":"PAYLOAD","APOAPSIS":"548.296","OBJECT_NAME":"STARLINK-1577","REV_AT_EPOCH":"8516","PERIAPSIS":"546.361","REF_FRAME":"TEME","ARG_OF_PERICENTER":"77.1170","EPHEMERIS_TYPE":"0","TLE_LINE2":"2 46063  53.0546 304.2019 0001397  77.1170 282.9975 15.06362364 85164","ECCENTRICITY":"0.00013970","GP_ID":"195891110","BSTAR":"-0.00064906000000","EPOCH":"2022-02-13T10:23:02.172192","TIME_SYSTEM":"UTC","CLASSIFICATION_TYPE":"U","SEMIMAJOR_AXIS":"6925.464","RA_OF_ASC_NODE":"304.2019","ELEMENT_SET_NO":"999","INCLINATION":"53.0546","DECAY_DATE":null,"SITE":"AFETR","OBJECT_ID":"2020-055AN","PERIOD":"95.595","NORAD_CAT_ID":"46063","COUNTRY_CODE":"US","MEAN_MOTION":"15.06362364","FILE":"3299685","RCS_SIZE":"LARGE","MEAN_ELEMENT_THEORY":"SGP4","TLE_LINE1":"1 46063U 20055AN  22044.43266403 -.00009926  00000-0 -64906-3 0  9997","LAUNCH_DATE":"2020-08-07","CENTER_NAME":"EARTH"},{"FILE":"3299685","COUNTRY_CODE":"US","NORAD_CAT_ID":"46064","MEAN_MOTION":"15.06375838","PERIOD":"95.594","SITE":"AFETR","OBJECT_ID":"2020-055AP","LAUNCH_DATE":"2020-08-07","CENTER_NAME":"EARTH","TLE_LINE1":"1 46064U 20055AP  22044.13409951 -.00011039  00000-0 -72379-3 0  9993","MEAN_ELEMENT_THEORY":"SGP4","RCS_SIZE":"LARGE","TIME_SYSTEM":"UTC","CLASSIFICATION_TYPE":"U","BSTAR":"-0.00072379000000","EPOCH":"2022-02-13T03:13:06.197664","ECCENTRICITY":"0.00018010","GP_ID":"195891861","DECAY_DATE":null,"INCLINATION":"53.0563","SEMIMAJOR_AXIS":"6925.423","RA_OF_ASC_NODE":"305.5326","ELEMENT_SET_NO":"999","REV_AT_EPOCH":"8512","PERIAPSIS":"546.040","TLE_LINE2":"2 46064  53.0563 305.5326 0001801  60.0102 300.1065 15.06375838 85124","ARG_OF_PERICENTER":"60.0102","EPHEMERIS_TYPE":"0","REF_FRAME":"TEME","OBJECT_TYPE":"PAYLOAD","MEAN_MOTION_DDOT":"0.0000000000000","MEAN_ANOMALY":"300.1065","MEAN_MOTION_DOT":"-0.00011039","OBJECT_NAME":"STARLINK-1583","APOAPSIS":"548.535"},{"APOAPSIS":"548.220","OBJECT_NAME":"STARLINK-1515","MEAN_MOTION_DOT":"-0.00000765","MEAN_MOTION_DDOT":"0.0000000000000","MEAN_ANOMALY":"288.5619","OBJECT_TYPE":"PAYLOAD","REF_FRAME":"TEME","ARG_OF_PERICENTER":"71.5521","EPHEMERIS_TYPE":"0","TLE_LINE2":"2 46065  53.0526 282.8790 0001399  71.5521 288.5619 15.06387642 84983","PERIAPSIS":"546.283","REV_AT_EPOCH":"8498","ELEMENT_SET_NO":"999","SEMIMAJOR_AXIS":"6925.386","RA_OF_ASC_NODE":"282.8790","INCLINATION":"53.0526","DECAY_DATE":null,"ECCENTRICITY":"0.00013990","GP_ID":"195899929","BSTAR":"-0.00003248600000","EPOCH":"2022-02-13T17:23:38.939136","TIME_SYSTEM":"UTC","CLASSIFICATION_TYPE":"U","RCS_SIZE":"LARGE","TLE_LINE1":"1 46065U 20055AQ  22044.72475624 -.00000765  00000-0 -32486-4 0  9999","MEAN_ELEMENT_THEORY":"SGP4","LAUNCH_DATE":"2020-08-07","CENTER_NAME":"EARTH","SITE":"AFETR","OBJECT_ID":"2020-055AQ","PERIOD":"95.593","MEAN_MOTION":"15.06387642","COUNTRY_CODE":"US","NORAD_CAT_ID":"46065","FILE":"3299771"}];
